STARLINK-31966          
1 59944U 24106Y   26068.11817874 -.00003591  00000+0 -12114-3 0  9994
2 59944  43.0015 335.8992 0000329 185.6983 174.3865 15.27555294100481
TEVEL2-9                
1 63237U 25052AD  26068.70229538  .00018694  00000+0  67240-3 0  9992
2 63237  97.4057 324.3929 0007990 124.2475 235.9522 15.28633834 54816
