[{"OBJECT_NAME":"STARLINK-31966","OBJECT_ID":"2024-106Y","EPOCH":"2026-03-09T02:50:10.643136","MEAN_MOTION":15.27555294,"ECCENTRICITY":3.292e-5,"INCLINATION":43.0015,"RA_OF_ASC_NODE":335.8992,"ARG_OF_PERICENTER":185.6983,"MEAN_ANOMALY":174.3865,"EPHEMERIS_TYPE":0,"CLASSIFICATION_TYPE":"U","NORAD_CAT_ID":59944,"ELEMENT_SET_NO":999,"REV_AT_EPOCH":10048,"BSTAR":-0.00012114449,"MEAN_MOTION_DOT":-3.591e-5,"MEAN_MOTION_DDOT":0},{"OBJECT_NAME":"TEVEL2-9","OBJECT_ID":"2025-052AD","EPOCH":"2026-03-09T16:51:18.321696","MEAN_MOTION":15.28633834,"ECCENTRICITY":0.000799,"INCLINATION":97.4057,"RA_OF_ASC_NODE":324.3929,"ARG_OF_PERICENTER":124.2475,"MEAN_ANOMALY":235.9522,"EPHEMERIS_TYPE":0,"CLASSIFICATION_TYPE":"U","NORAD_CAT_ID":63237,"ELEMENT_SET_NO":999,"REV_AT_EPOCH":5481,"BSTAR":0.00067240159,"MEAN_MOTION_DOT":0.00018694,"MEAN_MOTION_DDOT":0}]
